[{"OBJECT_NAME":"STARLINK-2193","OBJECT_ID":"2021-017BA","EPOCH":"2026-03-09T14:30:03.115872","MEAN_MOTION":15.29357492,"ECCENTRICITY":0.0001479,"INCLINATION":53.1561,"RA_OF_ASC_NODE":204.2135,"ARG_OF_PERICENTER":81.775,"MEAN_ANOMALY":278.3418,"EPHEMERIS_TYPE":0,"CLASSIFICATION_TYPE":"U","NORAD_CAT_ID":47770,"ELEMENT_SET_NO":999,"REV_AT_EPOCH":27785,"BSTAR":0.00042196,"MEAN_MOTION_DOT":0.0001184,"MEAN_MOTION_DDOT":0},{"OBJECT_NAME":"REAL","OBJECT_ID":"2025-154G","EPOCH":"2026-03-09T17:20:09.670560","MEAN_MOTION":15.28408058,"ECCENTRICITY":0.00018528,"INCLINATION":97.4133,"RA_OF_ASC_NODE":137.2581,"ARG_OF_PERICENTER":118.5876,"MEAN_ANOMALY":241.555,"EPHEMERIS_TYPE":0,"CLASSIFICATION_TYPE":"U","NORAD_CAT_ID":64875,"ELEMENT_SET_NO":999,"REV_AT_EPOCH":3483,"BSTAR":0.0008290401,"MEAN_MOTION_DOT":0.00022901,"MEAN_MOTION_DDOT":0}]
